{
  "type": "FeatureCollection",
  "features": [
    {
      "type": "Feature",
      "properties": {
        "norad_id": 66912,
        "name": "1998-067XY",
        "group": "last-30-days",
        "lat": -0.8635434769641976,
        "lon": -95.24838428124086,
        "alt_km": 411.6641727907736,
        "timestamp": "2025-12-24T11:32:58.720326+00:00",
        "meta_object_name": "1998-067XY",
        "meta_object_id": "1998-067XY",
        "meta_epoch": "2025-12-23T06:57:34.859520",
        "meta_mean_motion": 15.52133019,
        "meta_eccentricity": 0.00038791,
        "meta_inclination": 51.6317,
        "meta_ra_of_asc_node": 89.9922,
        "meta_arg_of_pericenter": 281.5198,
        "meta_mean_anomaly": 78.5356,
        "meta_ephemeris_type": 0,
        "meta_classification_type": "U",
        "meta_norad_cat_id": 66912,
        "meta_element_set_no": 999,
        "meta_rev_at_epoch": 324,
        "meta_bstar": 0.00084098106,
        "meta_mean_motion_dot": 0.00051669,
        "meta_mean_motion_ddot": 0,
        "tle_line1": "1 66912U 98067XY  25357.28998680  .00051669  00000+0  84098-3 0  9994",
        "tle_line2": "2 66912  51.6317  89.9922 0003879 281.5198  78.5356 15.52133019  3242"
      },
      "geometry": {
        "type": "Point",
        "coordinates": [
          -95.24838428124086,
          -0.8635434769641976
        ]
      }
    },
    {
      "type": "Feature",
      "properties": {
        "norad_id": 66913,
        "name": "2025-284A",
        "group": "last-30-days",
        "lat": -74.58252552967285,
        "lon": -27.136967290415456,
        "alt_km": 537.4584473887662,
        "timestamp": "2025-12-24T11:32:58.720337+00:00",
        "meta_object_name": "2025-284A",
        "meta_object_id": "2025-284A",
        "meta_epoch": "2025-12-23T02:34:46.438752",
        "meta_mean_motion": 15.08893564,
        "meta_eccentricity": 0.0013475,
        "meta_inclination": 80.4035,
        "meta_ra_of_asc_node": 116.7336,
        "meta_arg_of_pericenter": 259.6514,
        "meta_mean_anomaly": 100.3189,
        "meta_ephemeris_type": 0,
        "meta_classification_type": "U",
        "meta_norad_cat_id": 66913,
        "meta_element_set_no": 999,
        "meta_rev_at_epoch": 269,
        "meta_bstar": 0.00055263602,
        "meta_mean_motion_dot": 8.748e-05,
        "meta_mean_motion_ddot": 0,
        "tle_line1": "1 66913U 25284A   25357.10748193  .00008748  00000+0  55264-3 0  9992",
        "tle_line2": "2 66913  80.4035 116.7336 0013475 259.6514 100.3189 15.08893564  2694"
      },
      "geometry": {
        "type": "Point",
        "coordinates": [
          -27.136967290415456,
          -74.58252552967285
        ]
      }
    },
    {
      "type": "Feature",
      "properties": {
        "norad_id": 66914,
        "name": "2025-284B",
        "group": "last-30-days",
        "lat": 27.54972907340965,
        "lon": -70.18100810758895,
        "alt_km": 504.24441409553765,
        "timestamp": "2025-12-24T11:32:58.720347+00:00",
        "meta_object_name": "2025-284B",
        "meta_object_id": "2025-284B",
        "meta_epoch": "2025-12-16T06:51:11.417184",
        "meta_mean_motion": 15.18985981,
        "meta_eccentricity": 0.00081793,
        "meta_inclination": 80.4045,
        "meta_ra_of_asc_node": 125.2713,
        "meta_arg_of_pericenter": 234.9626,
        "meta_mean_anomaly": 125.0834,
        "meta_ephemeris_type": 0,
        "meta_classification_type": "U",
        "meta_norad_cat_id": 66914,
        "meta_element_set_no": 999,
        "meta_rev_at_epoch": 166,
        "meta_bstar": 0.00038444995,
        "meta_mean_motion_dot": 8.068e-05,
        "meta_mean_motion_ddot": 0,
        "tle_line1": "1 66914U 25284B   25350.28554881  .00008068  00000+0  38445-3 0  9991",
        "tle_line2": "2 66914  80.4045 125.2713 0008179 234.9626 125.0834 15.18985981  1668"
      },
      "geometry": {
        "type": "Point",
        "coordinates": [
          -70.18100810758895,
          27.54972907340965
        ]
      }
    },
    {
      "type": "Feature",
      "properties": {
        "norad_id": 66915,
        "name": "HULIANWANG DIGUI-105",
        "group": "last-30-days",
        "lat": 14.085471465730913,
        "lon": -122.69941194420143,
        "alt_km": 885.0135819231491,
        "timestamp": "2025-12-24T11:32:58.720357+00:00",
        "meta_object_name": "HULIANWANG DIGUI-105",
        "meta_object_id": "2025-285A",
        "meta_epoch": "2025-12-24T05:39:28.316160",
        "meta_mean_motion": 14.03719453,
        "meta_eccentricity": 0.0008102,
        "meta_inclination": 50.0054,
        "meta_ra_of_asc_node": 70.46,
        "meta_arg_of_pericenter": 321.0972,
        "meta_mean_anomaly": 38.9349,
        "meta_ephemeris_type": 0,
        "meta_classification_type": "U",
        "meta_norad_cat_id": 66915,
        "meta_element_set_no": 999,
        "meta_rev_at_epoch": 252,
        "meta_bstar": 0.00011611,
        "meta_mean_motion_dot": 3.2e-07,
        "meta_mean_motion_ddot": 0,
        "tle_line1": "1 66915U 25285A   25358.23574440  .00000032  00000+0  11611-3 0  9998",
        "tle_line2": "2 66915  50.0054  70.4600 0008102 321.0972  38.9349 14.03719453  2527"
      },
      "geometry": {
        "type": "Point",
        "coordinates": [
          -122.69941194420143,
          14.085471465730913
        ]
      }
    },
    {
      "type": "Feature",
      "properties": {
        "norad_id": 66916,
        "name": "HULIANWANG DIGUI-106",
        "group": "last-30-days",
        "lat": 3.1249373955328523,
        "lon": -113.19129266784576,
        "alt_km": 884.8980238931736,
        "timestamp": "2025-12-24T11:32:58.720368+00:00",
        "meta_object_name": "HULIANWANG DIGUI-106",
        "meta_object_id": "2025-285B",
        "meta_epoch": "2025-12-24T05:35:21.052320",
        "meta_mean_motion": 14.03704298,
        "meta_eccentricity": 0.0006884,
        "meta_inclination": 50.0064,
        "meta_ra_of_asc_node": 70.447,
        "meta_arg_of_pericenter": 314.4139,
        "meta_mean_anomaly": 45.6201,
        "meta_ephemeris_type": 0,
        "meta_classification_type": "U",
        "meta_norad_cat_id": 66916,
        "meta_element_set_no": 999,
        "meta_rev_at_epoch": 252,
        "meta_bstar": 0.00011165,
        "meta_mean_motion_dot": 2.5e-07,
        "meta_mean_motion_ddot": 0,
        "tle_line1": "1 66916U 25285B   25358.23288255  .00000025  00000+0  11165-3 0  9991",
        "tle_line2": "2 66916  50.0064  70.4470 0006884 314.4139  45.6201 14.03704298  2523"
      },
      "geometry": {
        "type": "Point",
        "coordinates": [
          -113.19129266784576,
          3.1249373955328523
        ]
      }
    },
    {
      "type": "Feature",
      "properties": {
        "norad_id": 66917,
        "name": "HULIANWANG DIGUI-107",
        "group": "last-30-days",
        "lat": -3.613639329074279,
        "lon": -107.54956264186518,
        "alt_km": 886.299297865834,
        "timestamp": "2025-12-24T11:32:58.720378+00:00",
        "meta_object_name": "HULIANWANG DIGUI-107",
        "meta_object_id": "2025-285C",
        "meta_epoch": "2025-12-24T05:32:50.087328",
        "meta_mean_motion": 14.03664294,
        "meta_eccentricity": 0.0007524,
        "meta_inclination": 50.0029,
        "meta_ra_of_asc_node": 70.4299,
        "meta_arg_of_pericenter": 323.7772,
        "meta_mean_anomaly": 36.2622,
        "meta_ephemeris_type": 0,
        "meta_classification_type": "U",
        "meta_norad_cat_id": 66917,
        "meta_element_set_no": 999,
        "meta_rev_at_epoch": 252,
        "meta_bstar": 0.00010953,
        "meta_mean_motion_dot": 2.2e-07,
        "meta_mean_motion_ddot": 0,
        "tle_line1": "1 66917U 25285C   25358.23113527  .00000022  00000+0  10953-3 0  9992",
        "tle_line2": "2 66917  50.0029  70.4299 0007524 323.7772  36.2622 14.03664294  2526"
      },
      "geometry": {
        "type": "Point",
        "coordinates": [
          -107.54956264186518,
          -3.613639329074279
        ]
      }
    },
    {
      "type": "Feature",
      "properties": {
        "norad_id": 66918,
        "name": "HULIANWANG DIGUI-108",
        "group": "last-30-days",
        "lat": -5.993387670940423,
        "lon": -105.53380335080888,
        "alt_km": 885.8223625590072,
        "timestamp": "2025-12-24T11:32:58.720388+00:00",
        "meta_object_name": "HULIANWANG DIGUI-108",
        "meta_object_id": "2025-285D",
        "meta_epoch": "2025-12-24T05:31:55.891200",
        "meta_mean_motion": 14.03603392,
        "meta_eccentricity": 0.0006671,
        "meta_inclination": 50.0062,
        "meta_ra_of_asc_node": 70.4312,
        "meta_arg_of_pericenter": 318.3811,
        "meta_mean_anomaly": 41.6585,
        "meta_ephemeris_type": 0,
        "meta_classification_type": "U",
        "meta_norad_cat_id": 66918,
        "meta_element_set_no": 999,
        "meta_rev_at_epoch": 252,
        "meta_bstar": 0.00011223,
        "meta_mean_motion_dot": 2.6e-07,
        "meta_mean_motion_ddot": 0,
        "tle_line1": "1 66918U 25285D   25358.23050800  .00000026  00000+0  11223-3 0  9992",
        "tle_line2": "2 66918  50.0062  70.4312 0006671 318.3811  41.6585 14.03603392  2526"
      },
      "geometry": {
        "type": "Point",
        "coordinates": [
          -105.53380335080888,
          -5.993387670940423
        ]
      }
    }
  ]
}